{
    "links": {
        "self": "http://www.neowsapp.com/rest/v1/neo/3698543?api_key=iIulBulltgU6a56xZRHN4H3l9WmuAYTsLGpBGhQ2"
    },
    "id": "3698543",
    "neo_reference_id": "3698543",
    "name": "(2014 HS198)",
    "designation": "2014 HS198",
    "nasa_jpl_url": "http://ssd.jpl.nasa.gov/sbdb.cgi?sstr=3698543",
    "absolute_magnitude_h": 25.5,
    "estimated_diameter": {
        "kilometers": {
            "estimated_diameter_min": 0.0211132445,
            "estimated_diameter_max": 0.0472106499
        },
        "meters": {
            "estimated_diameter_min": 21.113244479,
            "estimated_diameter_max": 47.2106498806
        },
        "miles": {
            "estimated_diameter_min": 0.0131191578,
            "estimated_diameter_max": 0.0293353287
        },
        "feet": {
            "estimated_diameter_min": 69.2691770164,
            "estimated_diameter_max": 154.8905885541
        }
    },
    "is_potentially_hazardous_asteroid": false,
    "close_approach_data": [
        {
            "close_approach_date": "2014-04-08",
            "close_approach_date_full": "2014-Apr-08 04:41",
            "epoch_date_close_approach": 1396932060000,
            "relative_velocity": {
                "kilometers_per_second": "4.7176606298",
                "kilometers_per_hour": "16983.5782672971",
                "miles_per_hour": "10552.9350628103"
            },
            "miss_distance": {
                "astronomical": "0.1357166837",
                "lunar": "52.7937899593",
                "kilometers": "20302926.804983719",
                "miles": "12615653.7209805622"
            },
            "orbiting_body": "Earth"
        }
    ],
    "orbital_data": {
        "orbit_id": "3",
        "orbit_determination_date": "2017-04-06 08:40:47",
        "first_observation_date": "2014-04-28",
        "last_observation_date": "2014-05-02",
        "data_arc_in_days": 4,
        "observations_used": 24,
        "orbit_uncertainty": "9",
        "minimum_orbit_intersection": ".125415",
        "jupiter_tisserand_invariant": "4.467",
        "epoch_osculation": "2456777.5",
        "eccentricity": ".260379148552605",
        "semi_major_axis": "1.514385398278468",
        "inclination": "8.339448748229701",
        "ascending_node_longitude": "24.73835056311259",
        "orbital_period": "680.6957626615127",
        "perihelion_distance": "1.120071017694223",
        "perihelion_argument": "160.7239080872083",
        "aphelion_distance": "1.908699778862714",
        "perihelion_time": "2456739.444824822934",
        "mean_anomaly": "20.12626464747988",
        "mean_motion": ".5288706346465329",
        "equinox": "J2000",
        "orbit_class": {
            "orbit_class_type": "AMO",
            "orbit_class_description": "Near-Earth asteroid orbits similar to that of 1221 Amor",
            "orbit_class_range": "1.017 AU < q (perihelion) < 1.3 AU"
        }
    },
    "is_sentry_object": false
}